[{"OBJECT_NAME":"ONEWEB-0387","OBJECT_ID":"2021-090AL","EPOCH":"2026-04-10T11:43:30.473760","MEAN_MOTION":13.20773457,"ECCENTRICITY":0.0001401,"INCLINATION":87.9133,"RA_OF_ASC_NODE":287.9739,"ARG_OF_PERICENTER":93.731,"MEAN_ANOMALY":266.3983,"EPHEMERIS_TYPE":0,"CLASSIFICATION_TYPE":"U","NORAD_CAT_ID":49313,"ELEMENT_SET_NO":999,"REV_AT_EPOCH":22088,"BSTAR":-0.0018192,"MEAN_MOTION_DOT":-7.27e-06,"MEAN_MOTION_DDOT":0.0},{"OBJECT_NAME":"ONEWEB-0388","OBJECT_ID":"2021-090AM","EPOCH":"2026-04-10T07:47:03.471936","MEAN_MOTION":13.19726989,"ECCENTRICITY":0.0001699,"INCLINATION":87.9173,"RA_OF_ASC_NODE":318.5029,"ARG_OF_PERICENTER":89.7652,"MEAN_ANOMALY":270.3675,"EPHEMERIS_TYPE":0,"CLASSIFICATION_TYPE":"U","NORAD_CAT_ID":49314,"ELEMENT_SET_NO":999,"REV_AT_EPOCH":21746,"BSTAR":0.00014152000000000001,"MEAN_MOTION_DOT":7e-07,"MEAN_MOTION_DDOT":0.0},{"OBJECT_NAME":"ONEWEB-0389","OBJECT_ID":"2021-132A","EPOCH":"2026-04-10T11:07:38.657568","MEAN_MOTION":13.17650474,"ECCENTRICITY":0.0001458,"INCLINATION":87.9181,"RA_OF_ASC_NODE":19.3201,"ARG_OF_PERICENTER":85.0308,"MEAN_ANOMALY":275.0989,"EPHEMERIS_TYPE":0,"CLASSIFICATION_TYPE":"U","NORAD_CAT_ID":50469,"ELEMENT_SET_NO":999,"REV_AT_EPOCH":20916,"BSTAR":0.00025703,"MEAN_MOTION_DOT":1.13e-06,"MEAN_MOTION_DDOT":0.0},{"OBJECT_NAME":"ONEWEB-0390","OBJECT_ID":"2021-132B","EPOCH":"2026-04-10T11:10:05.120256","MEAN_MOTION":13.17651575,"ECCENTRICITY":0.0001753,"INCLINATION":87.9183,"RA_OF_ASC_NODE":19.3201,"ARG_OF_PERICENTER":71.0482,"MEAN_ANOMALY":289.084,"EPHEMERIS_TYPE":0,"CLASSIFICATION_TYPE":"U","NORAD_CAT_ID":50470,"ELEMENT_SET_NO":999,"REV_AT_EPOCH":20916,"BSTAR":0.00029863000000000003,"MEAN_MOTION_DOT":1.29e-06,"MEAN_MOTION_DDOT":0.0},{"OBJECT_NAME":"ONEWEB-0391","OBJECT_ID":"2021-132C","EPOCH":"2026-04-10T11:12:30.234240","MEAN_MOTION":13.17650418,"ECCENTRICITY":9.63e-05,"INCLINATION":87.9185,"RA_OF_ASC_NODE":19.3291,"ARG_OF_PERICENTER":76.657,"MEAN_ANOMALY":283.4669,"EPHEMERIS_TYPE":0,"CLASSIFICATION_TYPE":"U","NORAD_CAT_ID":50471,"ELEMENT_SET_NO":999,"REV_AT_EPOCH":20916,"BSTAR":0.00016644999999999998,"MEAN_MOTION_DOT":7.7e-07,"MEAN_MOTION_DDOT":0.0},{"OBJECT_NAME":"ONEWEB-0392","OBJECT_ID":"2021-132D","EPOCH":"2026-04-10T11:56:15.144000","MEAN_MOTION":13.17647194,"ECCENTRICITY":0.0001446,"INCLINATION":87.9194,"RA_OF_ASC_NODE":19.286,"ARG_OF_PERICENTER":82.9687,"MEAN_ANOMALY":277.1609,"EPHEMERIS_TYPE":0,"CLASSIFICATION_TYPE":"U","NORAD_CAT_ID":50472,"ELEMENT_SET_NO":999,"REV_AT_EPOCH":20920,"BSTAR":5.4584000000000005e-05,"MEAN_MOTION_DOT":3.4e-07,"MEAN_MOTION_DDOT":0.0},{"OBJECT_NAME":"ONEWEB-0393","OBJECT_ID":"2021-132E","EPOCH":"2026-04-10T11:21:01.959840","MEAN_MOTION":13.17650002,"ECCENTRICITY":0.0001657,"INCLINATION":87.9184,"RA_OF_ASC_NODE":19.3135,"ARG_OF_PERICENTER":79.9318,"MEAN_ANOMALY":280.2,"EPHEMERIS_TYPE":0,"CLASSIFICATION_TYPE":"U","NORAD_CAT_ID":50473,"ELEMENT_SET_NO":999,"REV_AT_EPOCH":20919,"BSTAR":0.00020999000000000001,"MEAN_MOTION_DOT":9.4e-07,"MEAN_MOTION_DDOT":0.0},{"OBJECT_NAME":"ONEWEB-0394","OBJECT_ID":"2021-132F","EPOCH":"2026-04-10T04:31:15.040128","MEAN_MOTION":13.18685789,"ECCENTRICITY":0.0001633,"INCLINATION":87.9229,"RA_OF_ASC_NODE":348.9596,"ARG_OF_PERICENTER":85.2382,"MEAN_ANOMALY":274.8937,"EPHEMERIS_TYPE":0,"CLASSIFICATION_TYPE":"U","NORAD_CAT_ID":50474,"ELEMENT_SET_NO":999,"REV_AT_EPOCH":21263,"BSTAR":0.00030124000000000004,"MEAN_MOTION_DOT":1.32e-06,"MEAN_MOTION_DDOT":0.0},{"OBJECT_NAME":"ONEWEB-0395","OBJECT_ID":"2021-132G","EPOCH":"2026-04-10T08:08:29.173056","MEAN_MOTION":13.11418124,"ECCENTRICITY":0.0001697,"INCLINATION":87.8906,"RA_OF_ASC_NODE":34.557,"ARG_OF_PERICENTER":75.5057,"MEAN_ANOMALY":284.6259,"EPHEMERIS_TYPE":0,"CLASSIFICATION_TYPE":"U","NORAD_CAT_ID":50475,"ELEMENT_SET_NO":999,"REV_AT_EPOCH":20682,"BSTAR":0.0014269,"MEAN_MOTION_DOT":5.18e-06,"MEAN_MOTION_DDOT":0.0},{"OBJECT_NAME":"ONEWEB-0396","OBJECT_ID":"2021-132H","EPOCH":"2026-04-10T09:49:32.352672","MEAN_MOTION":13.1868456,"ECCENTRICITY":0.0001648,"INCLINATION":87.9231,"RA_OF_ASC_NODE":348.9279,"ARG_OF_PERICENTER":83.0051,"MEAN_ANOMALY":277.1268,"EPHEMERIS_TYPE":0,"CLASSIFICATION_TYPE":"U","NORAD_CAT_ID":50476,"ELEMENT_SET_NO":999,"REV_AT_EPOCH":21270,"BSTAR":0.00016813,"MEAN_MOTION_DOT":7.9e-07,"MEAN_MOTION_DDOT":0.0},{"OBJECT_NAME":"ONEWEB-0397","OBJECT_ID":"2021-132J","EPOCH":"2026-04-10T10:10:55.029792","MEAN_MOTION":13.18684413,"ECCENTRICITY":0.0001728,"INCLINATION":87.923,"RA_OF_ASC_NODE":348.9249,"ARG_OF_PERICENTER":87.9035,"MEAN_ANOMALY":272.2295,"EPHEMERIS_TYPE":0,"CLASSIFICATION_TYPE":"U","NORAD_CAT_ID":50477,"ELEMENT_SET_NO":999,"REV_AT_EPOCH":21268,"BSTAR":-0.00029368,"MEAN_MOTION_DOT":-1.03e-06,"MEAN_MOTION_DDOT":0.0},{"OBJECT_NAME":"ONEWEB-0398","OBJECT_ID":"2021-132K","EPOCH":"2026-04-10T12:51:41.297760","MEAN_MOTION":13.11417845,"ECCENTRICITY":0.0001829,"INCLINATION":87.8921,"RA_OF_ASC_NODE":34.5017,"ARG_OF_PERICENTER":69.4198,"MEAN_ANOMALY":290.7126,"EPHEMERIS_TYPE":0,"CLASSIFICATION_TYPE":"U","NORAD_CAT_ID":50478,"ELEMENT_SET_NO":999,"REV_AT_EPOCH":20674,"BSTAR":-0.0015699,"MEAN_MOTION_DOT":-5.44e-06,"MEAN_MOTION_DDOT":0.0},{"OBJECT_NAME":"ONEWEB-0399","OBJECT_ID":"2021-132L","EPOCH":"2026-04-10T12:32:08.104128","MEAN_MOTION":13.11414197,"ECCENTRICITY":0.0001542,"INCLINATION":87.892,"RA_OF_ASC_NODE":34.5142,"ARG_OF_PERICENTER":92.9609,"MEAN_ANOMALY":267.1696,"EPHEMERIS_TYPE":0,"CLASSIFICATION_TYPE":"U","NORAD_CAT_ID":50479,"ELEMENT_SET_NO":999,"REV_AT_EPOCH":20673,"BSTAR":-0.0008028,"MEAN_MOTION_DOT":-2.72e-06,"MEAN_MOTION_DDOT":0.0},{"OBJECT_NAME":"ONEWEB-0400","OBJECT_ID":"2021-132M","EPOCH":"2026-04-10T09:40:01.850016","MEAN_MOTION":13.18685113,"ECCENTRICITY":0.0001728,"INCLINATION":87.9234,"RA_OF_ASC_NODE":348.9193,"ARG_OF_PERICENTER":74.372,"MEAN_ANOMALY":285.7603,"EPHEMERIS_TYPE":0,"CLASSIFICATION_TYPE":"U","NORAD_CAT_ID":50480,"ELEMENT_SET_NO":999,"REV_AT_EPOCH":21267,"BSTAR":-0.00022846,"MEAN_MOTION_DOT":-7.7e-07,"MEAN_MOTION_DDOT":0.0},{"OBJECT_NAME":"ONEWEB-0401","OBJECT_ID":"2021-132N","EPOCH":"2026-04-10T10:44:12.063840","MEAN_MOTION":13.18688475,"ECCENTRICITY":0.0001875,"INCLINATION":87.9232,"RA_OF_ASC_NODE":348.9066,"ARG_OF_PERICENTER":82.4987,"MEAN_ANOMALY":277.6358,"EPHEMERIS_TYPE":0,"CLASSIFICATION_TYPE":"U","NORAD_CAT_ID":50481,"ELEMENT_SET_NO":999,"REV_AT_EPOCH":21268,"BSTAR":-9.9492e-05,"MEAN_MOTION_DOT":-2.6e-07,"MEAN_MOTION_DDOT":0.0},{"OBJECT_NAME":"ONEWEB-0402","OBJECT_ID":"2021-132P","EPOCH":"2026-04-10T09:51:54.781344","MEAN_MOTION":13.1868775,"ECCENTRICITY":0.0002101,"INCLINATION":87.9231,"RA_OF_ASC_NODE":348.9047,"ARG_OF_PERICENTER":91.8207,"MEAN_ANOMALY":268.3166,"EPHEMERIS_TYPE":0,"CLASSIFICATION_TYPE":"U","NORAD_CAT_ID":50482,"ELEMENT_SET_NO":999,"REV_AT_EPOCH":21270,"BSTAR":0.00018425,"MEAN_MOTION_DOT":8.6e-07,"MEAN_MOTION_DDOT":0.0}]