ONEWEB-0387             
1 49313U 21090AL  26100.48854715 -.00000727  00000+0 -18192-2 0  9993
2 49313  87.9133 287.9739 0001401  93.7310 266.3983 13.20773457220883
ONEWEB-0388             
1 49314U 21090AM  26100.32434574  .00000070  00000+0  14152-3 0  9996
2 49314  87.9173 318.5029 0001699  89.7652 270.3675 13.19726989217463
ONEWEB-0389             
1 50469U 21132A   26100.46364187  .00000113  00000+0  25703-3 0  9995
2 50469  87.9181  19.3201 0001458  85.0308 275.0989 13.17650474209164
ONEWEB-0390             
1 50470U 21132B   26100.46533704  .00000129  00000+0  29863-3 0  9998
2 50470  87.9183  19.3201 0001753  71.0482 289.0840 13.17651575209168
ONEWEB-0391             
1 50471U 21132C   26100.46701660  .00000077  00000+0  16645-3 0  9993
2 50471  87.9185  19.3291 0000963  76.6570 283.4669 13.17650418209163
ONEWEB-0392             
1 50472U 21132D   26100.49739750  .00000034  00000+0  54584-4 0  9996
2 50472  87.9194  19.2860 0001446  82.9687 277.1609 13.17647194209207
ONEWEB-0393             
1 50473U 21132E   26100.47293935  .00000094  00000+0  20999-3 0  9993
2 50473  87.9184  19.3135 0001657  79.9318 280.2000 13.17650002209194
ONEWEB-0394             
1 50474U 21132F   26100.18836852  .00000132  00000+0  30124-3 0  9997
2 50474  87.9229 348.9596 0001633  85.2382 274.8937 13.18685789212634
ONEWEB-0395             
1 50475U 21132G   26100.33922654  .00000518  00000+0  14269-2 0  9990
2 50475  87.8906  34.5570 0001697  75.5057 284.6259 13.11418124206827
ONEWEB-0396             
1 50476U 21132H   26100.40940223  .00000079  00000+0  16813-3 0  9991
2 50476  87.9231 348.9279 0001648  83.0051 277.1268 13.18684560212709
ONEWEB-0397             
1 50477U 21132J   26100.42424803 -.00000103  00000+0 -29368-3 0  9994
2 50477  87.9230 348.9249 0001728  87.9035 272.2295 13.18684413212680
ONEWEB-0398             
1 50478U 21132K   26100.53589465 -.00000544  00000+0 -15699-2 0  9993
2 50478  87.8921  34.5017 0001829  69.4198 290.7126 13.11417845206749
ONEWEB-0399             
1 50479U 21132L   26100.52231602 -.00000272  00000+0 -80280-3 0  9997
2 50479  87.8920  34.5142 0001542  92.9609 267.1696 13.11414197206734
ONEWEB-0400             
1 50480U 21132M   26100.40279919 -.00000077  00000+0 -22846-3 0  9996
2 50480  87.9234 348.9193 0001728  74.3720 285.7603 13.18685113212676
ONEWEB-0401             
1 50481U 21132N   26100.44736185 -.00000026  00000+0 -99492-4 0  9990
2 50481  87.9232 348.9066 0001875  82.4987 277.6358 13.18688475212684
ONEWEB-0402             
1 50482U 21132P   26100.41105071  .00000086  00000+0  18425-3 0  9992
2 50482  87.9231 348.9047 0002101  91.8207 268.3166 13.18687750212707
